[{"OBJECT_NAME":"STARLINK-32221","OBJECT_ID":"2024-136P","EPOCH":"2026-03-09T06:53:37.601664","MEAN_MOTION":15.30189895,"ECCENTRICITY":0.00014395,"INCLINATION":53.1602,"RA_OF_ASC_NODE":77.4827,"ARG_OF_PERICENTER":81.3445,"MEAN_ANOMALY":278.7718,"EPHEMERIS_TYPE":0,"CLASSIFICATION_TYPE":"U","NORAD_CAT_ID":60342,"ELEMENT_SET_NO":999,"REV_AT_EPOCH":8960,"BSTAR":-7.759244e-6,"MEAN_MOTION_DOT":-5.89e-6,"MEAN_MOTION_DDOT":0},{"OBJECT_NAME":"FENGYUN 1C DEB","OBJECT_ID":"1999-025AQG","EPOCH":"2026-03-09T10:43:06.043872","MEAN_MOTION":15.25746961,"ECCENTRICITY":0.00178142,"INCLINATION":98.9311,"RA_OF_ASC_NODE":250.2123,"ARG_OF_PERICENTER":328.3876,"MEAN_ANOMALY":31.6286,"EPHEMERIS_TYPE":0,"CLASSIFICATION_TYPE":"U","NORAD_CAT_ID":30674,"ELEMENT_SET_NO":999,"REV_AT_EPOCH":98658,"BSTAR":0.015201752,"MEAN_MOTION_DOT":0.00411052,"MEAN_MOTION_DDOT":0}]
